{"fetched_at":"2026-07-22T07:09:39.252Z","source":"https://celestrak.org/NORAD/elements/gp.php?NAME=EROS&FORMAT=JSON","constellation":"eros","records":[{"OBJECT_NAME":"EROS C3","OBJECT_ID":"2022-179A","EPOCH":"2026-07-21T14:11:47.278752","CLASSIFICATION_TYPE":"U","MEAN_MOTION":15.11072049,"ECCENTRICITY":0.00084968,"INCLINATION":139.3351,"RA_OF_ASC_NODE":201.435,"ARG_OF_PERICENTER":222.8534,"MEAN_ANOMALY":137.1611,"EPHEMERIS_TYPE":0,"NORAD_CAT_ID":54880,"ELEMENT_SET_NO":999,"REV_AT_EPOCH":19753,"BSTAR":0.00022761769,"MEAN_MOTION_DOT":0.0000413,"MEAN_MOTION_DDOT":0}]}
