{"epoch":1784710044,"count":18256,"objects":[{"id":"54880","name":"EROS C3","type":"PAYLOAD","l1":"1 54880U 22179A   26202.59151943  .00004130  00000-0  22762-3 0  9995","l2":"2 54880 139.3351 201.4350 0008497 222.8534 137.1611 15.11072049197536"}]}